{
    "links": {
        "self": "http://www.neowsapp.com/rest/v1/neo/3843397?api_key=iIulBulltgU6a56xZRHN4H3l9WmuAYTsLGpBGhQ2"
    },
    "id": "3843397",
    "neo_reference_id": "3843397",
    "name": "(2019 OY2)",
    "designation": "2019 OY2",
    "nasa_jpl_url": "http://ssd.jpl.nasa.gov/sbdb.cgi?sstr=3843397",
    "absolute_magnitude_h": 24.7,
    "estimated_diameter": {
        "kilometers": {
            "estimated_diameter_min": 0.0305179233,
            "estimated_diameter_max": 0.0682401509
        },
        "meters": {
            "estimated_diameter_min": 30.5179232594,
            "estimated_diameter_max": 68.2401509401
        },
        "miles": {
            "estimated_diameter_min": 0.0189629525,
            "estimated_diameter_max": 0.0424024508
        },
        "feet": {
            "estimated_diameter_min": 100.1244233463,
            "estimated_diameter_max": 223.8850168104
        }
    },
    "is_potentially_hazardous_asteroid": false,
    "close_approach_data": [
        {
            "close_approach_date": "2019-07-25",
            "close_approach_date_full": "2019-Jul-25 19:54",
            "epoch_date_close_approach": 1564084440000,
            "relative_velocity": {
                "kilometers_per_second": "5.914345894",
                "kilometers_per_hour": "21291.6452183138",
                "miles_per_hour": "13229.800330235"
            },
            "miss_distance": {
                "astronomical": "0.0741873812",
                "lunar": "28.8588912868",
                "kilometers": "11098274.208398044",
                "miles": "6896147.8144752472"
            },
            "orbiting_body": "Earth"
        }
    ],
    "orbital_data": {
        "orbit_id": "3",
        "orbit_determination_date": "2019-09-05 05:55:02",
        "first_observation_date": "2019-07-27",
        "last_observation_date": "2019-09-03",
        "data_arc_in_days": 38,
        "observations_used": 19,
        "orbit_uncertainty": "8",
        "minimum_orbit_intersection": ".039389",
        "jupiter_tisserand_invariant": "4.203",
        "epoch_osculation": "2458695.5",
        "eccentricity": ".362613038277547",
        "semi_major_axis": "1.649834092528144",
        "inclination": ".5268056966443987",
        "ascending_node_longitude": "12.08375907715096",
        "orbital_period": "774.0318606335088",
        "perihelion_distance": "1.051582739582634",
        "perihelion_argument": "311.5788962080578",
        "aphelion_distance": "2.248085445473654",
        "perihelion_time": "2458707.709689695490",
        "mean_anomaly": "354.3213083156824",
        "mean_motion": ".4650971339931109",
        "equinox": "J2000",
        "orbit_class": {
            "orbit_class_type": "AMO",
            "orbit_class_description": "Near-Earth asteroid orbits similar to that of 1221 Amor",
            "orbit_class_range": "1.017 AU < q (perihelion) < 1.3 AU"
        }
    },
    "is_sentry_object": false
}